{
  "norad_id": 68829,
  "name": "COSMOS 2618",
  "history": [
    {
      "epoch": "2026-04-24T17:42:37.713600Z",
      "apogee_km": 338.0080444588739,
      "perigee_km": 321.1035853344847,
      "latitude_deg": 1.8267377624997532e-05,
      "longitude_deg": -84.14115335455699,
      "height_km": 336.8297441742566,
      "semi_major_axis_km": 6707.692814896679,
      "eccentricity": 0.00126008,
      "inclination_deg": 96.6466,
      "raan_deg": 34.2825,
      "arg_perigee_deg": 241.1997,
      "mean_anomaly_deg": 118.8008,
      "mean_motion_rev_day": 15.8031264
    },
    {
      "epoch": "2026-05-05T19:35:33.453024Z",
      "apogee_km": 336.4336498825096,
      "perigee_km": 317.94438392350094,
      "latitude_deg": 8.433079746284848e-05,
      "longitude_deg": -112.59721222518606,
      "height_km": 339.3493944443251,
      "semi_major_axis_km": 6705.3260169030045,
      "eccentricity": 0.0013787,
      "inclination_deg": 96.6475,
      "raan_deg": 44.9781,
      "arg_perigee_deg": 194.2526,
      "mean_anomaly_deg": 165.8358,
      "mean_motion_rev_day": 15.81149425
    },
    {
      "epoch": "2026-05-06T18:22:33.819744Z",
      "apogee_km": 336.3898449445751,
      "perigee_km": 317.6435762005567,
      "latitude_deg": 3.7626656458276886e-05,
      "longitude_deg": -94.36722087711895,
      "height_km": 339.4228546941182,
      "semi_major_axis_km": 6705.153710572566,
      "eccentricity": 0.0013979,
      "inclination_deg": 96.6476,
      "raan_deg": 45.8953,
      "arg_perigee_deg": 190.8186,
      "mean_anomaly_deg": 169.2786,
      "mean_motion_rev_day": 15.81210373
    }
  ]
}